ONEWEB-0012             
1 44057U 19010A   26160.42549151  .00000067  00000+0  14237-3 0  9999
2 44057  87.9103 230.3264 0002117  86.8775 273.2599 13.16594598350547
ONEWEB-0010             
1 44058U 19010B   26160.45082078 -.00000004  00000+0 -43663-4 0  9992
2 44058  87.9102 230.3173 0001797 104.9149 255.2181 13.16594488350596
ONEWEB-0008             
1 44059U 19010C   26160.47615618  .00000083  00000+0  18410-3 0  9993
2 44059  87.9099 230.3077 0002301 101.1763 258.9627 13.16595436350711
ONEWEB-0007             
1 44060U 19010D   26160.50514118  .00000155  00000+0  37819-3 0  9996
2 44060  87.9001 260.7516 0001674  95.6910 264.4412 13.15547952350368
ONEWEB-0006             
1 44061U 19010E   26160.50909198  .00000153  00000+0  37215-3 0  9991
2 44061  87.9012 260.7142 0001801 102.2916 257.8417 13.15548480350413
ONEWEB-0011             
1 44062U 19010F   26160.55345540 -.00000002  00000+0 -40399-4 0  9995
2 44062  87.9013 260.7150 0001980 107.0781 253.0566 13.15550596350419
ONEWEB-0013             
1 45131U 20008A   26160.45256946  .00000473  00000+0  13371-2 0  9990
2 45131  87.8531  54.3855 0002561  59.8957 300.2424 13.09459999305051
ONEWEB-0017             
1 45132U 20008B   26160.36396245 -.00000145  00000+0 -45064-3 0  9991
2 45132  87.8838  37.8270 0001608  85.6547 274.4764 13.10369259306929
ONEWEB-0020             
1 45133U 20008C   26160.41046014  .00000505  00000+0  14103-2 0  9991
2 45133  87.8846  37.8161 0001791  80.5541 279.5789 13.10373775307325
ONEWEB-0021             
1 45134U 20008D   26160.34903812  .00000490  00000+0  13663-2 0  9995
2 45134  87.8837  37.8443 0001779  78.6017 281.5310 13.10370655307621
ONEWEB-0023             
1 45136U 20008F   26160.35981967  .00000057  00000+0  12572-3 0  9993
2 45136  87.8841  37.8238 0001942  80.0736 280.0610 13.10369463307056
ONEWEB-0024             
1 45137U 20008G   26160.40893488  .00000533  00000+0  14891-2 0  9994
2 45137  87.8853  37.8065 0001773  81.2452 278.8876 13.10374098307226
ONEWEB-0025             
1 45138U 20008H   26160.40865896  .00000526  00000+0  14690-2 0  9996
2 45138  87.8855  37.7960 0002132  93.4170 266.7201 13.10374286307557
ONEWEB-0026             
1 45139U 20008J   26160.52888527  .00000574  00000+0  15834-2 0  9990
2 45139  87.8893  22.5929 0001725  89.1217 271.0109 13.11417689310105
ONEWEB-0028             
1 45140U 20008K   26160.35163067  .00034538  00000+0  97331-1 0  9996
2 45140  87.8890  22.6373 0001999  73.6082 286.5266 13.11219254307591
ONEWEB-0032             
1 45141U 20008L   26160.36576009 -.00000313  00000+0 -93354-3 0  9991
2 45141  87.8838  37.8283 0002158  72.3177 287.8186 13.10369308307276
ONEWEB-0033             
1 45142U 20008M   26160.41709797  .00000687  00000+0  19314-2 0  9995
2 45142  87.8840  37.8253 0001438  95.0186 265.1106 13.10372117307193
ONEWEB-0035             
1 45143U 20008N   26160.36079585 -.00000063  00000+0 -21768-3 0  9992
2 45143  87.8835  37.8294 0001724  83.7862 276.3462 13.10370450306912
ONEWEB-0036             
1 45144U 20008P   26160.40996732  .00009875  00000+0  28403-1 0  9999
2 45144  87.8870  37.8277 0001788  84.5633 275.5698 13.09931186307345
ONEWEB-0038             
1 45145U 20008Q   26160.53919910  .00000382  00000+0  10419-2 0  9990
2 45145  87.8908  22.5984 0001014  16.0452 344.0708 13.11415376309320
ONEWEB-0039             
1 45146U 20008R   26160.42041757  .00000246  00000+0  66721-3 0  9991
2 45146  87.8836  37.8149 0001995  66.9709 293.1628 13.10372472307141
ONEWEB-0040             
1 45147U 20008S   26160.18470665  .00000660  00000+0  18554-2 0  9999
2 45147  87.8838  37.8728 0001749  77.7639 282.3685 13.10373208306810
ONEWEB-0043             
1 45149U 20008U   26160.41544243  .00000710  00000+0  19972-2 0  9992
2 45149  87.8843  37.8141 0002172  68.7334 291.4025 13.10372963307165
ONEWEB-0044             
1 45150U 20008V   26160.36728126 -.00000372  00000+0 -11009-2 0  9991
2 45150  87.8847  37.8237 0001857  75.9056 284.2278 13.10369483307452
ONEWEB-0045             
1 45151U 20008W   26160.53397847  .00000498  00000+0  13683-2 0  9990
2 45151  87.8903  22.5824 0001810  80.2155 279.9178 13.11416423309402
ONEWEB-0047             
1 45152U 20008X   26160.36051395 -.00000014  00000+0 -75508-4 0  9999
2 45152  87.8845  37.8247 0001596  81.7777 278.3531 13.10369900307177
ONEWEB-0048             
1 45153U 20008Y   26160.35567339  .00000226  00000+0  61088-3 0  9999
2 45153  87.8835  37.8475 0001747  81.7298 278.4028 13.10369607306788
ONEWEB-0049             
1 45154U 20008Z   26160.35885655  .00000084  00000+0  20372-3 0  9997
2 45154  87.8839  37.8361 0002228  84.7172 275.4209 13.10369252307006
ONEWEB-0051             
1 45155U 20008AA  26160.53229201  .00000548  00000+0  15116-2 0  9991
2 45155  87.8895  22.5908 0001831  83.9737 276.1600 13.11416251310082
ONEWEB-0052             
1 45156U 20008AB  26160.37903676 -.00000628  00000+0 -18368-2 0  9992
2 45156  87.8844  37.8182 0002248  83.6003 276.5381 13.10372490306918
